STARLINK-32552          
1 62174U 24225M   26068.66028605  .00031571  00000+0  26247-2 0  9999
2 62174  70.0041 164.4162 0006013 234.2276 125.8325 14.98571867 69876
METHANESAT              
1 59101U 24043D   26068.92538335  .00003748  00000+0  32562-3 0  9991
2 59101  97.8288 199.6058 0010053 350.2517   9.8508 14.97588653109792
